[
    {
        "Altitude(m)": 622205.8932103709,
        "Argument of Periapsis(deg)": 0.0,
        "Eccentricity": 0.0,
        "Inclination(deg)": 60.0,
        "Latitude(deg)": -52.1625064011621,
        "Longitude(deg)": -37.29949178870306,
        "Mean Anomaly(deg)": -114.54549999999999,
        "RAAN(deg)": 195.00000000000003,
        "Satellite Name": "Test1 873",
        "Satellite Number": 873,
        "Semi-Major Axis(m)": 6980739.136638005,
        "Time(s)": 0
    },
    {
        "Altitude(m)": 622344.7992287744,
        "Argument of Periapsis(deg)": 0.00010418945913296404,
        "Eccentricity": 0.0,
        "Inclination(deg)": 60.0,
        "Latitude(deg)": -52.52008477353234,
        "Longitude(deg)": -36.51827670005834,
        "Mean Anomaly(deg)": -113.92539385453814,
        "RAAN(deg)": 194.99957995086024,
        "Satellite Name": "Test1 873",
        "Satellite Number": 873,
        "Semi-Major Axis(m)": 6980739.136638005,
        "Time(s)": 10
    }
]